[{"OBJECT_NAME":"STARLINK-4350","OBJECT_ID":"2022-077C","EPOCH":"2026-03-09T22:20:49.918848","MEAN_MOTION":15.0565129,"ECCENTRICITY":0.00015783,"INCLINATION":97.6027,"RA_OF_ASC_NODE":251.4606,"ARG_OF_PERICENTER":86.2761,"MEAN_ANOMALY":273.8646,"EPHEMERIS_TYPE":0,"CLASSIFICATION_TYPE":"U","NORAD_CAT_ID":53045,"ELEMENT_SET_NO":999,"REV_AT_EPOCH":20102,"BSTAR":1.9001185e-5,"MEAN_MOTION_DOT":2.13e-6,"MEAN_MOTION_DDOT":0},{"OBJECT_NAME":"PEGASUS DEB","OBJECT_ID":"1994-029ED","EPOCH":"2026-03-09T22:32:35.369664","MEAN_MOTION":15.15581903,"ECCENTRICITY":0.00435925,"INCLINATION":81.9086,"RA_OF_ASC_NODE":82.9658,"ARG_OF_PERICENTER":180.8011,"MEAN_ANOMALY":179.3158,"EPHEMERIS_TYPE":0,"CLASSIFICATION_TYPE":"U","NORAD_CAT_ID":24082,"ELEMENT_SET_NO":999,"REV_AT_EPOCH":60530,"BSTAR":0.00058600752,"MEAN_MOTION_DOT":0.00011426,"MEAN_MOTION_DDOT":0}]
